{
  "type": "FeatureCollection",
  "features": [
    {
      "type": "Feature",
      "geometry": {
        "type": "Point",
        "coordinates": [
          25.61639257,
          49.54890953
        ]
      },
      "properties": {
        "number": 1,
        "id": "stefanyka",
        "kind": "house",
        "address": "Стефаника, 19",
        "district": "Східний",
        "price": 89900,
        "section": "active",
        "mapPrecision": "адресна точка",
        "reason": "Компроміс: лише 57,3 м² і 4,21 сотки. Відоме місце; заїзд заявлений, фото його не доводять.",
        "map": "https://www.google.com/maps/search/?api=1&query=49.54890953%2C25.61639257"
      }
    },
    {
      "type": "Feature",
      "geometry": {
        "type": "Point",
        "coordinates": [
          25.6100247,
          49.508705
        ]
      },
      "properties": {
        "number": 2,
        "id": "corner",
        "kind": "house",
        "address": "Академіка Студинського, 6",
        "district": "Південний / Газопровід",
        "price": 110000,
        "section": "active",
        "mapPrecision": "точна адресна точка — адреса від користувача",
        "reason": "Пріоритет користувача: Студинського, 6; $110 000 без комісії. Детальна OLX-копія віком близько 6 днів; прямий доступ 403. Кутове положення, межування з висотками, відступ і межі потребують перевірки. Персональний виняток щодо району; повної відповідності немає.",
        "map": "https://www.google.com/maps/search/?api=1&query=49.508705%2C25.6100247"
      }
    },
    {
      "type": "Feature",
      "geometry": {
        "type": "Point",
        "coordinates": [
          25.6060396,
          49.5461873
        ]
      },
      "properties": {
        "number": 3,
        "id": "zamonastyrska",
        "kind": "house",
        "address": "Замонастирська, 36",
        "district": "Центр",
        "price": 70000,
        "section": "excluded",
        "mapPrecision": "адресна точка",
        "reason": "Відсіяно: історична оцінка від 21.09 — приблизно 27 м від адресної точки до колії, не від межі ділянки. Маркер оголошення зміщений; нового виміру немає.",
        "map": "https://www.google.com/maps/search/?api=1&query=49.5461873%2C25.6060396"
      }
    },
    {
      "type": "Feature",
      "geometry": {
        "type": "Point",
        "coordinates": [
          25.6061923,
          49.5454626
        ]
      },
      "properties": {
        "number": 4,
        "id": "mostova",
        "kind": "house",
        "address": "Мостова, номер не вказано",
        "district": "Центр",
        "price": 120000,
        "section": "excluded",
        "mapPrecision": "маркер короткої вулиці; номер невідомий",
        "reason": "Пряме виключення користувача: Мостова без номера біля колії. Індексована копія OLX: $120 000, понад бюджет; прямий доступ 403. Продаж не доведений.",
        "map": "https://www.google.com/maps/search/?api=1&query=49.5454626%2C25.6061923"
      }
    },
    {
      "type": "Feature",
      "geometry": {
        "type": "Point",
        "coordinates": [
          25.6056463,
          49.5478561
        ]
      },
      "properties": {
        "number": 5,
        "id": "divocha",
        "kind": "house",
        "address": "Дівоча, 4",
        "district": "Східний",
        "price": 74000,
        "section": "excluded",
        "mapPrecision": "адресна точка",
        "reason": "Відсіяно: кутова ділянка на роздоріжжі біля Татарської. Два заїзди не усувають цей недолік.",
        "map": "https://www.google.com/maps/search/?api=1&query=49.5478561%2C25.6056463"
      }
    },
    {
      "type": "Feature",
      "geometry": {
        "type": "Point",
        "coordinates": [
          25.6042018,
          49.5476365
        ]
      },
      "properties": {
        "number": 7,
        "id": "tatarska53",
        "kind": "house",
        "address": "Татарська, імовірно 53",
        "district": "Східний",
        "price": 95000,
        "section": "excluded",
        "mapPrecision": "приблизний маркер вулиці",
        "reason": "Відсіяно: ділянка Татарська/Дівоча — пряме виключення користувача. 47 м² / 4,35 сотки за $95 000; точний номер із агрегатора не доведено.",
        "map": "https://www.google.com/maps/search/?api=1&query=49.5476365%2C25.6042018"
      }
    },
    {
      "type": "Feature",
      "geometry": {
        "type": "Point",
        "coordinates": [
          25.6112587,
          49.5495122
        ]
      },
      "properties": {
        "number": 8,
        "id": "hlyboka",
        "kind": "house",
        "address": "Глибока, ймовірно 29",
        "district": "Східний",
        "price": 105000,
        "section": "excluded",
        "mapPrecision": "приблизний маркер вулиці",
        "reason": "Не включено: площа землі суперечлива — 3 проти 1,5 сотки; навпроти ймовірного №29 велика багатоповерхівка. Потрібні точна адреса й документи.",
        "map": "https://www.google.com/maps/search/?api=1&query=49.5495122%2C25.6112587"
      }
    },
    {
      "type": "Feature",
      "geometry": {
        "type": "Point",
        "coordinates": [
          25.5937548,
          49.5367157
        ]
      },
      "properties": {
        "number": 9,
        "id": "bilohirska",
        "kind": "house",
        "address": "Білогірська, 34",
        "district": "Східний / південна межа — уточнити",
        "price": 118000,
        "section": "excluded",
        "mapPrecision": "номер на фото + адреса Google Maps",
        "reason": "26.09.2026 актуальність детального оголошення не підтверджена; ціна й фото з попередньої перевірки. Відсіяно: це Білогірська, 34 — номер підтверджено на фото. До колії ≈51 м від адресної точки. На задньому плані також висока житлова забудова.",
        "map": "https://www.google.com/maps/search/?api=1&query=49.5367157%2C25.5937548"
      }
    },
    {
      "type": "Feature",
      "geometry": {
        "type": "Point",
        "coordinates": [
          25.61433982849121,
          49.54907989501953
        ]
      },
      "properties": {
        "number": 11,
        "id": "hlyboka-46",
        "kind": "house",
        "address": "Глибока, 46",
        "district": "Східний",
        "price": 138000,
        "section": "excluded",
        "mapPrecision": "точна адресна точка",
        "reason": "Остаточно відсіяно користувачем 24.09.2026: $138 000 за всю садибу понад бюджет; орієнтовний ремонт за оцінкою користувача $69 000. Свіжий RIELTOR показує $143 000 + 5%. Доступність сторінки і дешевші часткові пропозиції не змінюють рішення.",
        "map": "https://www.google.com/maps/search/?api=1&query=49.54907989501953%2C25.61433982849121"
      }
    },
    {
      "type": "Feature",
      "geometry": {
        "type": "Point",
        "coordinates": [
          25.59133467,
          49.56632737
        ]
      },
      "properties": {
        "number": 14,
        "id": "vilkhova",
        "kind": "house",
        "address": "Вільхова, номер не підтверджено",
        "district": "Новий світ",
        "price": 140000,
        "section": "excluded",
        "mapPrecision": "приблизний маркер вулиці",
        "reason": "Поточна прочитана DIM.RIA — $140 000, понад бюджет; історичний OLX $120 000 зараз не перевірений. Конфлікт 3 / 3,15 сотки, точний номер і безпечний відступ до колії не встановлено.",
        "map": "https://www.google.com/maps/search/?api=1&query=49.56632737%2C25.59133467"
      }
    },
    {
      "type": "Feature",
      "geometry": {
        "type": "Point",
        "coordinates": [
          25.516691559329498,
          49.546993895723574
        ]
      },
      "properties": {
        "number": 19,
        "id": "land-pid-yur2",
        "kind": "land",
        "address": "Ділянка · Юркевича, 2 — адреса довідкового кадастру",
        "district": "Підгороднє",
        "price": 6100,
        "section": "excluded",
        "mapPrecision": "точка кадастрової сторінки; не вихід з двору",
        "reason": "Не включено: житлове призначення є у довідковому кадастрі, але підключені мережі, межі на місці, ризики й обидва пішохідні маршрути ≤500 м не доведені.",
        "map": "https://www.google.com/maps/search/?api=1&query=49.546993895723574%2C25.516691559329498"
      }
    },
    {
      "type": "Feature",
      "geometry": {
        "type": "Point",
        "coordinates": [
          25.50985773687324,
          49.55911423934969
        ]
      },
      "properties": {
        "number": 24,
        "id": "land-st1633",
        "kind": "land",
        "address": "Ділянка · СТ у західній околиці, кадастр …1633",
        "district": "Передмістя / Львівські дачі",
        "price": 7000,
        "section": "excluded",
        "mapPrecision": "довідкова кадастрова точка; не вихід із двору",
        "reason": "$7 000 / заявлені 6,12 сотки. Кадастровий блок та довідкова сторінка підтверджують садівництво, не житлову забудову. У довідці площа 6,14 сотки. Підключення мереж і маршрути не доведені.",
        "map": "https://www.google.com/maps/search/?api=1&query=49.55911423934969%2C25.50985773687324"
      }
    },
    {
      "type": "Feature",
      "geometry": {
        "type": "Point",
        "coordinates": [
          25.515919651604406,
          49.550069692441205
        ]
      },
      "properties": {
        "number": 27,
        "id": "land-pid-nez19",
        "kind": "land",
        "address": "Ділянка · Незалежності, 19 — адреса довідкового кадастру",
        "district": "Підгороднє",
        "price": 8900,
        "section": "excluded",
        "mapPrecision": "точка кадастрової сторінки; не вихід з двору",
        "reason": "Не включено: житлове призначення є у довідковому кадастрі, але підключені мережі, межі на місці, ризики й обидва пішохідні маршрути ≤500 м не доведені.",
        "map": "https://www.google.com/maps/search/?api=1&query=49.550069692441205%2C25.515919651604406"
      }
    },
    {
      "type": "Feature",
      "geometry": {
        "type": "Point",
        "coordinates": [
          25.645715713500977,
          49.53163528442383
        ]
      },
      "properties": {
        "number": 28,
        "id": "land-franka",
        "kind": "land",
        "address": "Ділянка · Івана Франка, номер невідомий",
        "district": "Великі Гаї",
        "price": 9000,
        "section": "excluded",
        "mapPrecision": "маркер оголошення; межі не встановлені",
        "reason": "Відсіяно: садівництво A.01.05, а житлова забудова лише як можлива майбутня зміна призначення.",
        "map": "https://www.google.com/maps/search/?api=1&query=49.53163528442383%2C25.645715713500977"
      }
    },
    {
      "type": "Feature",
      "geometry": {
        "type": "Point",
        "coordinates": [
          25.516474454994437,
          49.547175978481775
        ]
      },
      "properties": {
        "number": 35,
        "id": "land-pid-yur3",
        "kind": "land",
        "address": "Ділянка · Юркевича, 3 — адреса у фото витягу 2016 року",
        "district": "Підгороднє",
        "price": 10000,
        "section": "excluded",
        "mapPrecision": "точка кадастрової сторінки; не вихід з двору",
        "reason": "Не включено: житлове призначення є у довідковому кадастрі, але підключені мережі, межі на місці, ризики й обидва пішохідні маршрути ≤500 м не доведені.",
        "map": "https://www.google.com/maps/search/?api=1&query=49.547175978481775%2C25.516474454994437"
      }
    },
    {
      "type": "Feature",
      "geometry": {
        "type": "Point",
        "coordinates": [
          25.527617968240627,
          49.555121902398646
        ]
      },
      "properties": {
        "number": 44,
        "id": "land-lviv69",
        "kind": "land",
        "address": "Ділянка · Львівська / дорога Н02, кадастр …0592",
        "district": "Кутківці / Львівське шосе — уточнити",
        "price": 12999,
        "section": "excluded",
        "mapPrecision": "точка ділянки зі стороннього кадастрового сервісу; вихід із двору не встановлений",
        "reason": "26.09.2026 актуальність детального оголошення не підтверджена; ціна й фото з попередньої перевірки. Відсіяно: кутова ділянка з заїздом із двох вулиць; кадастрова сторінка показує садівництво 01.05, а мережі лише поруч. Указаний садочок тільки планується.",
        "map": "https://www.google.com/maps/search/?api=1&query=49.555121902398646%2C25.527617968240627"
      }
    },
    {
      "type": "Feature",
      "geometry": {
        "type": "Point",
        "coordinates": [
          25.541872969647766,
          49.58925851270822
        ]
      },
      "properties": {
        "number": 45,
        "id": "land-pro150",
        "kind": "land",
        "address": "Ділянка · Проєктна, 150 — адреса довідкового кадастру",
        "district": "Пронятин",
        "price": 15000,
        "section": "excluded",
        "mapPrecision": "довідкова кадастрова точка; не вихід із двору",
        "reason": "Основні 10,02 сотки на Проєктній, 150 тепер мають довідкове підтвердження житлового призначення; разом заявлено 10+2 сотки за $15 000 + 5%. Додаткова частина ОСГ не прирівняна до житлової. Мережі лише на вулиці/за одну ділянку; схил та обидва маршрути 500 м не перевірені.",
        "map": "https://www.google.com/maps/search/?api=1&query=49.58925851270822%2C25.541872969647766"
      }
    },
    {
      "type": "Feature",
      "geometry": {
        "type": "Point",
        "coordinates": [
          25.527700424194336,
          49.541866302490234
        ]
      },
      "properties": {
        "number": 46,
        "id": "land-pid27",
        "kind": "land",
        "address": "Ділянка · 27,41 сотки, кадастр …0722",
        "district": "Підгороднє",
        "price": 15000,
        "section": "excluded",
        "mapPrecision": "маркер оголошення; межі не встановлені",
        "reason": "Відсіяно: попри ярлик «під забудову», кадастровий блок указує 01.03 — особисте селянське господарство.",
        "map": "https://www.google.com/maps/search/?api=1&query=49.541866302490234%2C25.527700424194336"
      }
    },
    {
      "type": "Feature",
      "geometry": {
        "type": "Point",
        "coordinates": [
          25.526268071866124,
          49.541579852519924
        ]
      },
      "properties": {
        "number": 51,
        "id": "land-pid-polova678",
        "kind": "land",
        "address": "Ділянка · Польова, номер невідомий · кадастр …3178",
        "district": "Підгороднє",
        "price": 16500,
        "section": "excluded",
        "mapPrecision": "точка кадастрової сторінки; не вихід з двору",
        "reason": "Не включено: житлове призначення є у довідковому кадастрі, але підключені мережі, межі на місці, ризики й обидва пішохідні маршрути ≤500 м не доведені.",
        "map": "https://www.google.com/maps/search/?api=1&query=49.541579852519924%2C25.526268071866124"
      }
    },
    {
      "type": "Feature",
      "geometry": {
        "type": "Point",
        "coordinates": [
          25.521168927196836,
          49.54180034623367
        ]
      },
      "properties": {
        "number": 52,
        "id": "land-pid-medova",
        "kind": "land",
        "address": "Ділянка · Медова, номер невідомий",
        "district": "Підгороднє",
        "price": 18000,
        "section": "excluded",
        "mapPrecision": "точка кадастрової сторінки; не вихід з двору",
        "reason": "Не включено: житлове призначення є у довідковому кадастрі, але підключені мережі, межі на місці, ризики й обидва пішохідні маршрути ≤500 м не доведені.",
        "map": "https://www.google.com/maps/search/?api=1&query=49.54180034623367%2C25.521168927196836"
      }
    },
    {
      "type": "Feature",
      "geometry": {
        "type": "Point",
        "coordinates": [
          25.54677137035727,
          49.588223896351494
        ]
      },
      "properties": {
        "number": 53,
        "id": "land-pron7-electric",
        "kind": "land",
        "address": "Ділянка · Проєктна, 6,67 сотки за кадастровим блоком",
        "district": "Пронятин",
        "price": 20000,
        "section": "excluded",
        "mapPrecision": "довідкова кадастрова точка; не вихід із двору",
        "reason": "$20 000 / 7 заявлених соток; інший дубль $23 000 / 6,67. Спільний кадастр …0213 підтверджує одну ділянку; довідкова площа 6,62 сотки, житлове призначення. Електрика заявлена, газ поруч; рельєф суперечливий, маршрути 500 м не доведені.",
        "map": "https://www.google.com/maps/search/?api=1&query=49.588223896351494%2C25.54677137035727"
      }
    },
    {
      "type": "Feature",
      "geometry": {
        "type": "Point",
        "coordinates": [
          25.670949935913086,
          49.50896072387695
        ]
      },
      "properties": {
        "number": 55,
        "id": "land-haiolha",
        "kind": "land",
        "address": "Ділянка · Княгині Ольги, номер невідомий",
        "district": "Великі Гаї",
        "price": 25000,
        "section": "excluded",
        "mapPrecision": "маркер оголошення; межі не встановлені",
        "reason": "Не включено: комунікації лише поруч, водопостачання не облаштоване; садочок ≤500 м не підтверджений.",
        "map": "https://www.google.com/maps/search/?api=1&query=49.50896072387695%2C25.670949935913086"
      }
    },
    {
      "type": "Feature",
      "geometry": {
        "type": "Point",
        "coordinates": [
          25.66977882385254,
          49.518436431884766
        ]
      },
      "properties": {
        "number": 58,
        "id": "land-haikashuba",
        "kind": "land",
        "address": "Ділянка · Отця Кашуби, номер невідомий",
        "district": "Великі Гаї",
        "price": 32000,
        "section": "excluded",
        "mapPrecision": "маркер оголошення; межі не встановлені",
        "reason": "Не включено: комунікації не описані, точна ділянка й садочок ≤500 м не підтверджені.",
        "map": "https://www.google.com/maps/search/?api=1&query=49.518436431884766%2C25.66977882385254"
      }
    },
    {
      "type": "Feature",
      "geometry": {
        "type": "Point",
        "coordinates": [
          25.56118392944336,
          49.56497573852539
        ]
      },
      "properties": {
        "number": 62,
        "id": "land-ter53",
        "kind": "land",
        "address": "Ділянка · Тернопільська, 53",
        "district": "Кутківці",
        "price": 40000,
        "section": "excluded",
        "mapPrecision": "маркер оголошення; межі не встановлені",
        "reason": "Відсіяно: лише 5 соток, менше мінімальних 6. Новий читабельний дубль RIELTOR №12780936 за $40 000 без комісії; історія ціни показує зниження 21.09 із $47 500, що вже передує базі 24.09. Не є новим зниженням цього запуску.",
        "map": "https://www.google.com/maps/search/?api=1&query=49.56497573852539%2C25.56118392944336"
      }
    },
    {
      "type": "Feature",
      "geometry": {
        "type": "Point",
        "coordinates": [
          25.543469,
          49.5855739
        ]
      },
      "properties": {
        "number": 64,
        "id": "proektna164",
        "kind": "house",
        "address": "Проєктна, 216 за Flatfy",
        "district": "Пронятин",
        "price": 41000,
        "section": "excluded",
        "mapPrecision": "приблизний маркер вулиці",
        "reason": "Не включено: знайдено дошкільний запис №30 на Калиновій, 46, але точний двір і пішохідні маршрути до садочка та зупинки ≤500 м не доведені. Потребує значних робіт; відступ, межі й рельєф не підтверджені.",
        "map": "https://www.google.com/maps/search/?api=1&query=49.5855739%2C25.543469"
      }
    },
    {
      "type": "Feature",
      "geometry": {
        "type": "Point",
        "coordinates": [
          25.5582997,
          49.5610711
        ]
      },
      "properties": {
        "number": 66,
        "id": "hlybokadolyna",
        "kind": "house",
        "address": "Глибока Долина, 29",
        "district": "Кутківці",
        "price": 45000,
        "section": "excluded",
        "mapPrecision": "адресна точка",
        "reason": "Відсіяно за вашою прямою вказівкою. Від маркера №29 до межі цвинтаря ≈46 м; фото також показують заглиблення та підпірні стіни.",
        "map": "https://www.google.com/maps/search/?api=1&query=49.5610711%2C25.5582997"
      }
    },
    {
      "type": "Feature",
      "geometry": {
        "type": "Point",
        "coordinates": [
          25.535654,
          49.531478
        ]
      },
      "properties": {
        "number": 70,
        "id": "pid83",
        "kind": "house",
        "address": "Зелена, 28 за ВІСОН, СТ «Жовтневе» — номер не звірений на місці",
        "district": "Підгороднє",
        "price": 50000,
        "section": "excluded",
        "mapPrecision": "приблизний маркер вулиці",
        "reason": "Не включено: від маркера до дошкільного відділення на Пасічній, 9 ≈1,35 км. Продавець пише про близьку зупинку, але її точної відстані не надає.",
        "map": "https://www.google.com/maps/search/?api=1&query=49.531478%2C25.535654"
      }
    },
    {
      "type": "Feature",
      "geometry": {
        "type": "Point",
        "coordinates": [
          25.55859086,
          49.56099675
        ]
      },
      "properties": {
        "number": 71,
        "id": "land-dolyna-detail",
        "kind": "land",
        "address": "Ділянка · Глибока Долина, номер невідомий",
        "district": "Кутківці",
        "price": 50000,
        "section": "excluded",
        "mapPrecision": "маркер оголошення; межі не встановлені",
        "reason": "Не включено: від маркера до цвинтаря ≈26 м. Точної ділянки не впізнано; номер та садочок ≤500 м невідомі.",
        "map": "https://www.google.com/maps/search/?api=1&query=49.56099675%2C25.55859086"
      }
    },
    {
      "type": "Feature",
      "geometry": {
        "type": "Point",
        "coordinates": [
          25.52971613277211,
          49.54875457882769
        ]
      },
      "properties": {
        "number": 73,
        "id": "land-pid52",
        "kind": "land",
        "address": "Ділянка · Підгороднє, заявлено 52 сотки — кадастр …3421",
        "district": "Підгороднє",
        "price": 50000,
        "section": "excluded",
        "mapPrecision": "точка кадастрової сторінки; не вихід з двору",
        "reason": "Відсіяно: заявлено 52 сотки «під житлову забудову», але єдиний наведений кадастр …3421 показує лише 10 соток для садівництва A.01.05. Решта землі, комунікації, місце й маршрути не доведені.",
        "map": "https://www.google.com/maps/search/?api=1&query=49.54875457882769%2C25.52971613277211"
      }
    },
    {
      "type": "Feature",
      "geometry": {
        "type": "Point",
        "coordinates": [
          25.64443808,
          49.52753068
        ]
      },
      "properties": {
        "number": 78,
        "id": "hai125",
        "kind": "house",
        "address": "Івана Франка бічна, номер невідомий",
        "district": "Великі Гаї",
        "price": 61560,
        "section": "excluded",
        "mapPrecision": "приблизний маркер вулиці",
        "reason": "DOM.RIA містить явну позначку видалення. Причина зняття невідома. Старі фото й €54 000 збережено як історію, обидва маршрути 500 м не доведені.",
        "map": "https://www.google.com/maps/search/?api=1&query=49.52753068%2C25.64443808"
      }
    },
    {
      "type": "Feature",
      "geometry": {
        "type": "Point",
        "coordinates": [
          25.543469,
          49.5855739
        ]
      },
      "properties": {
        "number": 84,
        "id": "proektna260",
        "kind": "house",
        "address": "Проєктна, номер не вказано",
        "district": "Пронятин",
        "price": 75000,
        "section": "excluded",
        "mapPrecision": "приблизний маркер вулиці",
        "reason": "Не включено: знайдено дошкільний запис №30 на Калиновій, 46, але точний двір і пішохідні маршрути до садочка та зупинки ≤500 м не доведені. Потребує значних робіт; відступ, межі й рельєф не підтверджені.",
        "map": "https://www.google.com/maps/search/?api=1&query=49.5855739%2C25.543469"
      }
    },
    {
      "type": "Feature",
      "geometry": {
        "type": "Point",
        "coordinates": [
          25.66320873,
          49.52202507
        ]
      },
      "properties": {
        "number": 85,
        "id": "hai188-alt",
        "kind": "house",
        "address": "Шевченка, 22 — за оголошенням",
        "district": "Великі Гаї",
        "price": 75000,
        "section": "excluded",
        "mapPrecision": "номер зі слів продавця; маркер приблизний",
        "reason": "Не включено: до садочка від маркера ≈1,23 км. Інше оголошення Шевченка, 5 / 188,4 м² / 17 соток видалене; збіг об’єктів не доведено.",
        "map": "https://www.google.com/maps/search/?api=1&query=49.52202507%2C25.66320873"
      }
    },
    {
      "type": "Feature",
      "geometry": {
        "type": "Point",
        "coordinates": [
          25.51654574605999,
          49.53825690729832
        ]
      },
      "properties": {
        "number": 91,
        "id": "pid120",
        "kind": "house",
        "address": "Садова, 15-А / Озерна — конфлікт адреси в дублікатах",
        "district": "Підгороднє",
        "price": 85000,
        "section": "excluded",
        "mapPrecision": "приблизний маркер вулиці",
        "reason": "Не включено за пішою доступністю: від маркера 600 м до садочка й 650 м до зупинки; по прямій ≈420 і ≈388 м. Номер 15-А з ЛУН не підтверджений.",
        "map": "https://www.google.com/maps/search/?api=1&query=49.53825690729832%2C25.51654574605999"
      }
    },
    {
      "type": "Feature",
      "geometry": {
        "type": "Point",
        "coordinates": [
          25.68052128020716,
          49.51456011382374
        ]
      },
      "properties": {
        "number": 93,
        "id": "hai120",
        "kind": "house",
        "address": "Назарія Яремчука, номер невідомий",
        "district": "Великі Гаї",
        "price": 87000,
        "section": "excluded",
        "mapPrecision": "приблизний маркер вулиці",
        "reason": "DOM.RIA містить явну позначку видалення. Причина невідома; старі $87 000 / 120 м² / 4 сотки й фото збережено як історію. Точна адреса й маршрути не доведені.",
        "map": "https://www.google.com/maps/search/?api=1&query=49.51456011382374%2C25.68052128020716"
      }
    },
    {
      "type": "Feature",
      "geometry": {
        "type": "Point",
        "coordinates": [
          25.642342685986925,
          49.51928661888711
        ]
      },
      "properties": {
        "number": 94,
        "id": "vhai-lesi-34082264",
        "kind": "house",
        "address": "Лесі Українки, 16 — номер із дубліката, не звірений на місці",
        "district": "Великі Гаї",
        "price": 89000,
        "section": "excluded",
        "mapPrecision": "приблизний маркер оголошення; межі садиби й номер на місці не підтверджені",
        "reason": "DOM.RIA 34082264: $89 000 + 5% / 180 м² / заявлені 25 соток. Дубль 33351994 з $95 000 / 250 м² видалений. Номер 16 відомий лише з цього історичного дубля. Межі землі, кутове положення та обидва маршрути ≤500 м не доведені.",
        "map": "https://www.google.com/maps/search/?api=1&query=49.51928661888711%2C25.642342685986925"
      }
    },
    {
      "type": "Feature",
      "geometry": {
        "type": "Point",
        "coordinates": [
          25.5648136,
          49.5627403
        ]
      },
      "properties": {
        "number": 95,
        "id": "ternopilska",
        "kind": "house",
        "address": "Тернопільська, номер не вказано",
        "district": "Кутківці",
        "price": 90000,
        "section": "excluded",
        "mapPrecision": "приблизний маркер вулиці",
        "reason": "RIELTOR 12924108 і земельний дубль 12924142 прочитані 24.09.2026: $90 000. OLX 24.09.2026 технічно не перевірений. Номер і обидва пішохідні маршрути до 500 м не підтверджені. Площа будинку 90/93,3 м²; 22,42 сотки включають ОСГ.",
        "map": "https://www.google.com/maps/search/?api=1&query=49.5627403%2C25.5648136"
      }
    },
    {
      "type": "Feature",
      "geometry": {
        "type": "Point",
        "coordinates": [
          25.64419496,
          49.52711983
        ]
      },
      "properties": {
        "number": 105,
        "id": "hai164",
        "kind": "house",
        "address": "Івана Франка / Франка бічна, номер невідомий",
        "district": "Великі Гаї",
        "price": 110000,
        "section": "excluded",
        "mapPrecision": "приблизний маркер вулиці",
        "reason": "DIM.RIA містить явну позначку видалення; OLX у цьому запуску повернув 403. Попередні $110 000 / 163,5 м² / 8,7 сотки й фото збережено як історію. Номер і обидва маршрути 500 м не доведені.",
        "map": "https://www.google.com/maps/search/?api=1&query=49.52711983%2C25.64419496"
      }
    },
    {
      "type": "Feature",
      "geometry": {
        "type": "Point",
        "coordinates": [
          25.5476712,
          49.5805983
        ]
      },
      "properties": {
        "number": 107,
        "id": "kalyna147",
        "kind": "house",
        "address": "Калинова / KALYNA HILLS · 147 м²",
        "district": "Пронятин",
        "price": 115000,
        "section": "excluded",
        "mapPrecision": "приблизний маркер вулиці",
        "reason": "Не включено: щільно розташовані однотипні котеджі одного містечка; історична фотоперевірка 21.09.2026. Пішохідні маршрути до садочка й зупинки ≤500 м не доведено.",
        "map": "https://www.google.com/maps/search/?api=1&query=49.5805983%2C25.5476712"
      }
    },
    {
      "type": "Feature",
      "geometry": {
        "type": "Point",
        "coordinates": [
          25.525611,
          49.5329651
        ]
      },
      "properties": {
        "number": 108,
        "id": "pid-lesi229",
        "kind": "house",
        "address": "Северина Наливайка, 12 (дубль помилково підписаний «Лесі Українки»)",
        "district": "Підгороднє",
        "price": 115000,
        "section": "excluded",
        "mapPrecision": "№12 відомий з оголошень; мітка лише в центрі короткої вулиці",
        "reason": "Северина Наливайка, 12 — один будинок у трьох стабільних дублях. RIELTOR і LUN: $115 000; DOM.RIA: $120 000. Обидві ціни понад $110 000. Точна прив’язка ділянки й обидва маршрути ≤500 м не доведені; історична точка вулиці не є воротами.",
        "map": "https://www.google.com/maps/search/?api=1&query=49.5329651%2C25.525611"
      }
    },
    {
      "type": "Feature",
      "geometry": {
        "type": "Point",
        "coordinates": [
          25.5476712,
          49.5805983
        ]
      },
      "properties": {
        "number": 110,
        "id": "kalyna120",
        "kind": "house",
        "address": "Калинова / KALYNA HILLS · 120 м²",
        "district": "Пронятин",
        "price": 117000,
        "section": "excluded",
        "mapPrecision": "приблизний маркер вулиці",
        "reason": "26.09.2026 актуальність детального оголошення не підтверджена; ціна й фото з попередньої перевірки. Не включено: щільно розташовані однотипні котеджі одного містечка; історична фотоперевірка 21.09.2026. Пішохідні маршрути до садочка й зупинки ≤500 м не доведено.",
        "map": "https://www.google.com/maps/search/?api=1&query=49.5805983%2C25.5476712"
      }
    },
    {
      "type": "Feature",
      "geometry": {
        "type": "Point",
        "coordinates": [
          25.5476712,
          49.5805983
        ]
      },
      "properties": {
        "number": 111,
        "id": "kalyna179",
        "kind": "house",
        "address": "Калинова / KALYNA HILLS · 179 м²",
        "district": "Пронятин",
        "price": 118000,
        "section": "excluded",
        "mapPrecision": "приблизний маркер вулиці",
        "reason": "Не включено: щільно розташовані однотипні котеджі одного містечка; історична фотоперевірка 21.09.2026. Пішохідні маршрути до садочка й зупинки ≤500 м не доведено.",
        "map": "https://www.google.com/maps/search/?api=1&query=49.5805983%2C25.5476712"
      }
    },
    {
      "type": "Feature",
      "geometry": {
        "type": "Point",
        "coordinates": [
          25.5474377,
          49.5810776
        ]
      },
      "properties": {
        "number": 112,
        "id": "malynova",
        "kind": "house",
        "address": "Малинова, СТ Тернопільське",
        "district": "Пронятин / СТ — уточнити",
        "price": 120000,
        "section": "excluded",
        "mapPrecision": "приблизний маркер вулиці",
        "reason": "Не включено: знайдено дошкільний запис №30 на Калиновій, 46, але точний двір і пішохідні маршрути до садочка та зупинки ≤500 м не доведені. Є ознаки кутового положення й перепаду рівнів.",
        "map": "https://www.google.com/maps/search/?api=1&query=49.5810776%2C25.5474377"
      }
    },
    {
      "type": "Feature",
      "geometry": {
        "type": "Point",
        "coordinates": [
          25.5476712,
          49.5805983
        ]
      },
      "properties": {
        "number": 113,
        "id": "kalyna117",
        "kind": "house",
        "address": "Калинова / KALYNA HILLS · 117.5 м²",
        "district": "Пронятин",
        "price": 120000,
        "section": "excluded",
        "mapPrecision": "приблизний маркер вулиці",
        "reason": "Не включено: щільно розташовані однотипні котеджі одного містечка; історична фотоперевірка 21.09.2026. Пішохідні маршрути до садочка й зупинки ≤500 м не доведено.",
        "map": "https://www.google.com/maps/search/?api=1&query=49.5805983%2C25.5476712"
      }
    },
    {
      "type": "Feature",
      "geometry": {
        "type": "Point",
        "coordinates": [
          25.604246036926554,
          49.553099409977165
        ]
      },
      "properties": {
        "number": 124,
        "id": "tiutiunnyka",
        "kind": "house",
        "address": "Генерала Тютюнника, 22",
        "district": "Старий парк",
        "price": 60000,
        "section": "excluded",
        "mapPrecision": "адресна точка",
        "reason": "Відсіяно: велика багатоповерхівка безпосередньо позаду ділянки на супутнику; також район поза останнім переліком.",
        "map": "https://www.google.com/maps/search/?api=1&query=49.553099409977165%2C25.604246036926554"
      }
    },
    {
      "type": "Feature",
      "geometry": {
        "type": "Point",
        "coordinates": [
          25.607103867860545,
          49.55730838116434
        ]
      },
      "properties": {
        "number": 125,
        "id": "leontovycha",
        "kind": "house",
        "address": "Леонтовича, імовірно 21",
        "district": "Старий парк",
        "price": 65000,
        "section": "excluded",
        "mapPrecision": "приблизний маркер вулиці",
        "reason": "Відсіяно: навпроти ймовірної адреси довгий багатоквартирний будинок, поруч Т-подібне примикання. Район поза останнім переліком.",
        "map": "https://www.google.com/maps/search/?api=1&query=49.55730838116434%2C25.607103867860545"
      }
    },
    {
      "type": "Feature",
      "geometry": {
        "type": "Point",
        "coordinates": [
          25.6076527,
          49.521492
        ]
      },
      "properties": {
        "number": 128,
        "id": "festyvalna",
        "kind": "house",
        "address": "Фестивальна, номер не вказано",
        "district": "Авторинок",
        "price": 82000,
        "section": "excluded",
        "mapPrecision": "приблизний маркер вулиці",
        "reason": "26.09.2026 актуальність детального оголошення не підтверджена; ціна й фото з попередньої перевірки. Не включено після останнього уточнення: Авторинок поза переліченими міськими районами. Залишено для порівняння; раніше це був перспективний варіант.",
        "map": "https://www.google.com/maps/search/?api=1&query=49.521492%2C25.6076527"
      }
    },
    {
      "type": "Feature",
      "geometry": {
        "type": "Point",
        "coordinates": [
          25.618000030517578,
          49.51240158081055
        ]
      },
      "properties": {
        "number": 130,
        "id": "myk115",
        "kind": "house",
        "address": "Микулинецька, 115",
        "district": "Авторинок / межа міста",
        "price": 110000,
        "section": "excluded",
        "mapPrecision": "номер у рекламі; маркер не звірений з адресою",
        "reason": "Відсіяно: дуплекс у КМ Кленовий Гай, недозволений район. Ціна RIELTOR зросла з $100 000 до $110 000; ще 3% комісії.",
        "map": "https://www.google.com/maps/search/?api=1&query=49.51240158081055%2C25.618000030517578"
      }
    }
  ]
}